NORAD_CAT_ID,OBJECT_NAME,OBJECT_TYPE,EPOCH,MEAN_MOTION,ECCENTRICITY,INCLINATION,RA_OF_ASC_NODE,ARG_OF_PERICENTER,MEAN_ANOMALY,BSTAR,MEAN_MOTION_DOT,MEAN_MOTION_DDOT,TLE_LINE0,TLE_LINE1,TLE_LINE2,SEMIMAJOR_AXIS,PERIOD,APOGEE,PERIGEE,DECAYED
52283.0,STARLINK-3789,PAYLOAD,2022-09-16 17:01:33,15.0884665,0.0001653,53.221,50.288,54.5566,305.558,-0.00012079,-2.21e-05,0.0,0 STARLINK-3789,1 52283U 22041Y   22259.70941926 -.00002210  00000-0 -12079-3 0  9996,2 52283  53.2210  50.2880 0001653  54.5566 305.5580 15.08846650 22647,6917.86,95.437,540.869,538.582,0.0
52283.0,STARLINK-3789,PAYLOAD,2022-09-17 02:33:53,15.08829877,0.0001516,53.2206,48.5045,54.7221,305.3913,2.6229e-05,1.29e-06,0.0,0 STARLINK-3789,1 52283U 22041Y   22260.10686945  .00000129  00000-0  26229-4 0  9997,2 52283  53.2206  48.5045 0001516  54.7221 305.3913 15.08829877 23925,6917.911,95.438,540.825,538.7280000000002,0.0
52283.0,STARLINK-3789,PAYLOAD,2022-09-17 10:30:50,15.0881635,0.0001675999999999,53.2199,47.0175,62.7089,297.4074,0.00010787,1.428e-05,0.0,0 STARLINK-3789,1 52283U 22041Y   22260.43807950  .00001428  00000-0  10787-3 0  9998,2 52283  53.2199  47.0175 0001676  62.7089 297.4074 15.08816350 22753,6917.953,95.439,540.977,538.658,0.0
52283.0,STARLINK-3789,PAYLOAD,2022-09-17 20:03:08,15.08832665,0.0001624,53.2185,45.2293,52.7197,307.3943,-3.7978e-05,-8.92e-06,0.0,0 STARLINK-3789,1 52283U 22041Y   22260.83551407 -.00000892  00000-0 -37978-4 0  9993,2 52283  53.2185  45.2293 0001624  52.7197 307.3943 15.08832665 22811,6917.903,95.438,540.891,538.644,0.0
52283.0,STARLINK-3789,PAYLOAD,2022-09-18 10:21:36,15.08833936,0.000175,53.2192,42.5568,61.8573,298.2595,0.00010294,1.35e-05,0.0,0 STARLINK-3789,1 52283U 22041Y   22261.43166992  .00001350  00000-0  10294-3 0  9990,2 52283  53.2192  42.5568 0001750  61.8573 298.2595 15.08833936 22906,6917.899,95.438,540.975,538.553,0.0
52283.0,STARLINK-3789,PAYLOAD,2022-09-18 15:07:45,15.08834151,0.0001626,53.2194,41.6646,59.1769,300.9383,9.5143e-05,1.226e-05,0.0,0 STARLINK-3789,1 52283U 22041Y   22261.63039035  .00001226  00000-0  95143-4 0  9998,2 52283  53.2194  41.6646 0001626  59.1769 300.9383 15.08834151 22933,6917.898,95.438,540.888,538.638,0.0
52283.0,STARLINK-3789,PAYLOAD,2022-09-19 08:36:59,15.08837144,0.0001684,53.2198,38.3935,58.3902,301.7255,0.00015409,2.165e-05,0.0,0 STARLINK-3789,1 52283U 22041Y   22262.35902765  .00002165  00000-0  15409-3 0  9996,2 52283  53.2198  38.3935 0001684  58.3902 301.7255 15.08837144 23040,6917.889,95.438,540.919,538.589,0.0
52283.0,STARLINK-3789,PAYLOAD,2022-09-19 18:09:19,15.08835082,0.0001702,53.2198,36.6094,59.9044,300.2116,0.00013723,1.896e-05,0.0,0 STARLINK-3789,1 52283U 22041Y   22262.75647030  .00001896  00000-0  13723-3 0  9998,2 52283  53.2198  36.6094 0001702  59.9044 300.2116 15.08835082 24323,6917.895,95.438,540.938,538.5830000000002,0.0
52283.0,STARLINK-3789,PAYLOAD,2022-09-20 10:03:10,15.08839433,0.0001952,53.2196,33.6367,53.4891,306.628,0.00013448,1.853e-05,0.0,0 STARLINK-3789,1 52283U 22041Y   22263.41886640  .00001853  00000-0  13448-3 0  9991,2 52283  53.2196  33.6367 0001952  53.4891 306.6280 15.08839433 23209,6917.882,95.438,541.097,538.3969999999998,0.0
52283.0,STARLINK-3789,PAYLOAD,2022-09-20 14:49:19,15.08846141,0.0001946,53.2201,32.7445,60.1302,299.9883,3.7219e-05,3.04e-06,0.0,0 STARLINK-3789,1 52283U 22041Y   22263.61758528  .00000304  00000-0  37219-4 0  9999,2 52283  53.2201  32.7445 0001946  60.1302 299.9883 15.08846141 24453,6917.861999999999,95.437,541.073,538.38,0.0
52283.0,STARLINK-3789,PAYLOAD,2022-09-21 14:40:06,15.08855929,0.0002070999999999,53.2206,28.2846,62.7183,297.402,-0.00015461,-2.749e-05,0.0,0 STARLINK-3789,1 52283U 22041Y   22264.61118089 -.00002749  00000-0 -15461-3 0  9993,2 52283  53.2206  28.2846 0002071  62.7183 297.4020 15.08855929 23389,6917.831999999999,95.437,541.129,538.264,0.0
52283.0,STARLINK-3789,PAYLOAD,2022-09-22 12:55:30,15.08834099,0.0001802,53.2209,24.1224,58.9645,301.1524,-7.5695e-06,-4.09e-06,0.0,0 STARLINK-3789,1 52283U 22041Y   22265.53855205 -.00000409  00000-0 -75695-5 0  9991,2 52283  53.2209  24.1224 0001802  58.9645 301.1524 15.08834099 24746,6917.898,95.438,541.01,538.5169999999998,0.0
52283.0,STARLINK-3789,PAYLOAD,2022-09-22 14:30:53,15.08834413,0.0001706999999999,53.2203,23.8243,57.7509,302.3649,5.802999999999999e-06,-1.96e-06,0.0,0 STARLINK-3789,1 52283U 22041Y   22265.60479134 -.00000196  00000-0  58030-5 0  9998,2 52283  53.2203  23.8243 0001707  57.7509 302.3649 15.08834413 23534,6917.897,95.438,540.943,538.582,0.0
52283.0,STARLINK-3789,PAYLOAD,2022-09-23 12:46:17,15.08835511,0.0001701,53.2198,19.6623,51.3016,308.8128,3.8744e-05,3.29e-06,0.0,0 STARLINK-3789,1 52283U 22041Y   22266.53215133  .00000329  00000-0  38744-4 0  9994,2 52283  53.2198  19.6623 0001701  51.3016 308.8128 15.08835511 23677,6917.894,95.438,540.936,538.582,0.0
52283.0,STARLINK-3789,PAYLOAD,2022-09-23 14:21:40,15.08837528,0.0001710999999999,53.2201,19.3649,52.8335,307.2813,5.1603e-05,5.33e-06,0.0,0 STARLINK-3789,1 52283U 22041Y   22266.59838985  .00000533  00000-0  51603-4 0  9992,2 52283  53.2201  19.3649 0001711  52.8335 307.2813 15.08837528 24909,6917.888000000001,95.438,540.937,538.569,0.0
52283.0,STARLINK-3789,PAYLOAD,2022-09-23 19:07:49,15.08844008,0.0001653,53.2194,18.4719,49.2391,310.8744,9.8071e-05,1.273e-05,0.0,0 STARLINK-3789,1 52283U 22041Y   22266.79710416  .00001273  00000-0  98071-4 0  9994,2 52283  53.2194  18.4719 0001653  49.2391 310.8744 15.08844008 24932,6917.868,95.437,540.877,538.59,0.0
52283.0,STARLINK-3789,PAYLOAD,2022-09-24 12:37:04,15.08841332,0.0001506,53.2191,15.2006,52.7178,307.3952,6.9311e-05,8.15e-06,0.0,0 STARLINK-3789,1 52283U 22041Y   22267.52574633  .00000815  00000-0  69311-4 0  9991,2 52283  53.2191  15.2006 0001506  52.7178 307.3952 15.08841332 23828,6917.876,95.437,540.783,538.6990000000002,0.0
52283.0,STARLINK-3789,PAYLOAD,2022-09-24 14:12:27,15.08837668,0.0001551,53.2188,14.9051,45.4742,314.6377,2.4768e-05,1.06e-06,0.0,0 STARLINK-3789,1 52283U 22041Y   22267.59199056  .00000106  00000-0  24768-4 0  9990,2 52283  53.2188  14.9051 0001551  45.4742 314.6377 15.08837668 25052,6917.888000000001,95.438,540.825,538.68,0.0
52283.0,STARLINK-3789,PAYLOAD,2022-09-24 18:58:37,15.08850996,0.0001716,53.2195,14.0118,43.6578,316.455,-0.00020206,-3.503e-05,0.0,0 STARLINK-3789,1 52283U 22041Y   22267.79070974 -.00003503  00000-0 -20206-3 0  9997,2 52283  53.2195  14.0118 0001716  43.6578 316.4550 15.08850996 23864,6917.847,95.437,540.899,538.525,0.0
52283.0,STARLINK-3789,PAYLOAD,2022-09-25 14:03:15,15.08837725,0.0001699999999999,53.2193,10.4439,47.8178,312.2959,-5.5985e-05,-1.179e-05,0.0,0 STARLINK-3789,1 52283U 22041Y   22268.58559476 -.00001179  00000-0 -55985-4 0  9994,2 52283  53.2193  10.4439 0001700  47.8178 312.2959 15.08837725 23988,6917.887,95.438,540.928,538.576,0.0
52283.0,STARLINK-3789,PAYLOAD,2022-09-27 04:12:30,15.08834704,0.0001898,53.2198,3.3059,54.4179,305.699,-1.7516e-05,-5.67e-06,0.0,0 STARLINK-3789,1 52283U 22041Y   22270.17535795 -.00000567  00000-0 -17516-4 0  9998,2 52283  53.2198   3.3059 0001898  54.4179 305.6990 15.08834704 25443,6917.897,95.438,541.075,538.4490000000002,0.0
52283.0,STARLINK-3789,PAYLOAD,2022-09-27 12:09:26,15.08832679,0.0001730999999999,53.2197,1.8204,52.7261,307.3889,5.0569e-05,5.17e-06,0.0,0 STARLINK-3789,1 52283U 22041Y   22270.50655764  .00000517  00000-0  50569-4 0  9992,2 52283  53.2197   1.8204 0001731  52.7261 307.3889 15.08832679 24271,6917.903,95.438,540.965,538.57,0.0
52283.0,STARLINK-3789,PAYLOAD,2022-09-27 18:30:58,15.08840429,0.0001793,53.2197,0.6309,48.6573,311.4573,0.00010511,1.385e-05,0.0,0 STARLINK-3789,1 52283U 22041Y   22270.77151269  .00001385  00000-0  10511-3 0  9998,2 52283  53.2197   0.6309 0001793  48.6573 311.4573 15.08840429 25530,6917.879,95.438,540.984,538.504,0.0
52283.0,STARLINK-3789,PAYLOAD,2022-09-28 12:00:13,15.08845819,0.0001792,53.2196,357.36,48.2756,311.8389,8.347899999999999e-05,1.041e-05,0.0,0 STARLINK-3789,1 52283U 22041Y   22271.50015134  .00001041  00000-0  83479-4 0  9993,2 52283  53.2196 357.3600 0001792  48.2756 311.8389 15.08845819 24427,6917.863,95.437,540.967,538.488,0.0
52283.0,STARLINK-3789,PAYLOAD,2022-09-28 19:57:09,15.08832152,0.0001806,53.2196,355.8733,50.49100000000001,309.6241,8.522e-05,1.068e-05,0.0,0 STARLINK-3789,1 52283U 22041Y   22271.83135975  .00001068  00000-0  85220-4 0  9990,2 52283  53.2196 355.8733 0001806  50.4910 309.6241 15.08832152 25698,6917.904,95.438,541.019,538.52,0.0
52283.0,STARLINK-3789,PAYLOAD,2022-09-29 11:51:01,15.08831413,0.0001851,53.2188,352.9001,49.8629,310.2526,3.3177e-05,2.4e-06,0.0,0 STARLINK-3789,1 52283U 22041Y   22272.49376531  .00000240  00000-0  33177-4 0  9993,2 52283  53.2188 352.9001 0001851  49.8629 310.2526 15.08831413 24573,6917.906999999997,95.438,541.052,538.491,0.0
52283.0,STARLINK-3789,PAYLOAD,2022-09-29 19:47:56,15.08840913,0.0001862,53.2184,351.4135,51.8249,308.2911,0.00022009,3.216e-05,0.0,0 STARLINK-3789,1 52283U 22041Y   22272.82496287  .00003216  00000-0  22009-3 0  9998,2 52283  53.2184 351.4135 0001862  51.8249 308.2911 15.08840913 24620,6917.878000000002,95.437,541.031,538.4540000000002,0.0
52283.0,STARLINK-3789,PAYLOAD,2022-09-30 03:44:52,15.08844176,0.0001940999999999,53.2182,349.9268,50.9033,309.2132,0.00057483,8.873e-05,0.0,0 STARLINK-3789,1 52283U 22041Y   22273.15616418  .00008873  00000-0  57483-3 0  9993,2 52283  53.2182 349.9268 0001941  50.9033 309.2132 15.08844176 25897,6917.868,95.437,541.075,538.39,0.0
52283.0,STARLINK-3789,PAYLOAD,2022-09-30 11:41:47,15.08860979,0.0001966999999999,53.2182,348.4399,50.4877,309.6289,0.0010054,0.00015758,0.0,0 STARLINK-3789,1 52283U 22041Y   22273.48736060  .00015758  00000-0  10054-2 0  9997,2 52283  53.2182 348.4399 0001967  50.4877 309.6289 15.08860979 24722,6917.816,95.436,541.0419999999998,538.321,0.0
